[{"OBJECT_NAME":"YAM-7","OBJECT_ID":"2024-149AN","EPOCH":"2026-03-09T17:13:55.117920","MEAN_MOTION":15.30304554,"ECCENTRICITY":0.00019733,"INCLINATION":97.3828,"RA_OF_ASC_NODE":149.4631,"ARG_OF_PERICENTER":296.5121,"MEAN_ANOMALY":63.5918,"EPHEMERIS_TYPE":0,"CLASSIFICATION_TYPE":"U","NORAD_CAT_ID":60504,"ELEMENT_SET_NO":999,"REV_AT_EPOCH":8683,"BSTAR":0.00030984439,"MEAN_MOTION_DOT":9.009e-5,"MEAN_MOTION_DDOT":0},{"OBJECT_NAME":"STARLINK-35249","OBJECT_ID":"2025-224V","EPOCH":"2026-03-09T05:47:23.832384","MEAN_MOTION":15.30196702,"ECCENTRICITY":7.337e-5,"INCLINATION":53.1622,"RA_OF_ASC_NODE":13.5661,"ARG_OF_PERICENTER":86.4322,"MEAN_ANOMALY":273.6763,"EPHEMERIS_TYPE":0,"CLASSIFICATION_TYPE":"U","NORAD_CAT_ID":65901,"ELEMENT_SET_NO":999,"REV_AT_EPOCH":2478,"BSTAR":0.00147574,"MEAN_MOTION_DOT":0.000436,"MEAN_MOTION_DDOT":0}]
